[{"OBJECT_NAME":"STARLINK-1301","OBJECT_ID":"2020-019B","EPOCH":"2026-03-09T09:42:49.180896","MEAN_MOTION":15.64882929,"ECCENTRICITY":0.00012119,"INCLINATION":53.0421,"RA_OF_ASC_NODE":105.4706,"ARG_OF_PERICENTER":185.0942,"MEAN_ANOMALY":175.006,"EPHEMERIS_TYPE":0,"CLASSIFICATION_TYPE":"U","NORAD_CAT_ID":45361,"ELEMENT_SET_NO":999,"REV_AT_EPOCH":33056,"BSTAR":0.00054273222,"MEAN_MOTION_DOT":0.00053854,"MEAN_MOTION_DDOT":0},{"OBJECT_NAME":"STARLINK-31761","OBJECT_ID":"2024-080Q","EPOCH":"2026-03-09T22:00:01.999584","MEAN_MOTION":15.58768604,"ECCENTRICITY":0.00225253,"INCLINATION":42.9949,"RA_OF_ASC_NODE":28.7749,"ARG_OF_PERICENTER":171.9936,"MEAN_ANOMALY":312.0399,"EPHEMERIS_TYPE":0,"CLASSIFICATION_TYPE":"U","NORAD_CAT_ID":59615,"ELEMENT_SET_NO":999,"REV_AT_EPOCH":590,"BSTAR":0.0053316236,"MEAN_MOTION_DOT":0.00451126,"MEAN_MOTION_DDOT":0}]
